[{"OBJECT_NAME":"STARLINK-34472","OBJECT_ID":"2025-129Y","EPOCH":"2026-03-09T09:46:03.315648","MEAN_MOTION":14.98330059,"ECCENTRICITY":0.00046445,"INCLINATION":70.0008,"RA_OF_ASC_NODE":75.2207,"ARG_OF_PERICENTER":277.8623,"MEAN_ANOMALY":82.2009,"EPHEMERIS_TYPE":0,"CLASSIFICATION_TYPE":"U","NORAD_CAT_ID":64434,"ELEMENT_SET_NO":999,"REV_AT_EPOCH":4124,"BSTAR":0.00010171464,"MEAN_MOTION_DOT":1.121e-5,"MEAN_MOTION_DDOT":0},{"OBJECT_NAME":"UK-DMC","OBJECT_ID":"2003-042D","EPOCH":"2026-03-09T11:57:51.003072","MEAN_MOTION":14.8677093,"ECCENTRICITY":0.0054153,"INCLINATION":98.0812,"RA_OF_ASC_NODE":255.9431,"ARG_OF_PERICENTER":168.0294,"MEAN_ANOMALY":192.2222,"EPHEMERIS_TYPE":0,"CLASSIFICATION_TYPE":"U","NORAD_CAT_ID":27942,"ELEMENT_SET_NO":999,"REV_AT_EPOCH":20795,"BSTAR":0.00022518854,"MEAN_MOTION_DOT":1.999e-5,"MEAN_MOTION_DDOT":0}]
